[
  {
    "OBJECT_NAME": "STARLINK-3135",
    "OBJECT_ID": "21104S",
    "EPOCH": "2025-11-11T06:03:44.100864",
    "MEAN_MOTION": 15.08831285,
    "ECCENTRICITY": 0.0001363,
    "INCLINATION": 53.2165,
    "RA_OF_ASC_NODE": 40.8034,
    "ARG_OF_PERICENTER": 97.8905,
    "MEAN_ANOMALY": 262.2242,
    "EPHEMERIS_TYPE": 0,
    "CLASSIFICATION_TYPE": "U",
    "NORAD_CAT_ID": 49424,
    "ELEMENT_SET_NO": 999,
    "REV_AT_EPOCH": 22074,
    "BSTAR": 0.00011287,
    "MEAN_MOTION_DOT": 1.508e-05,
    "MEAN_MOTION_DDOT": 0.0,
    "TLE_LINE1": "1 49424U 21104S   25315.25259376  .00001508  00000+0  11287-3 0  9991",
    "TLE_LINE2": "2 49424  53.2165  40.8034 0001363  97.8905 262.2242 15.08831285220743",
    "COMMENT": "Grouped by shell and plane from TLE"
  },
  {
    "OBJECT_NAME": "STARLINK-3139",
    "OBJECT_ID": "21104T",
    "EPOCH": "2025-11-11T05:43:55.260192",
    "MEAN_MOTION": 15.08850678,
    "ECCENTRICITY": 0.0001731,
    "INCLINATION": 53.2175,
    "RA_OF_ASC_NODE": 40.8733,
    "ARG_OF_PERICENTER": 102.3486,
    "MEAN_ANOMALY": 257.77,
    "EPHEMERIS_TYPE": 0,
    "CLASSIFICATION_TYPE": "U",
    "NORAD_CAT_ID": 49425,
    "ELEMENT_SET_NO": 999,
    "REV_AT_EPOCH": 22075,
    "BSTAR": 0.0,
    "MEAN_MOTION_DOT": -1.509e-05,
    "MEAN_MOTION_DDOT": 0.0,
    "TLE_LINE1": "1 49425U 21104T   25315.23883403 -.00001509  00000+0 -76696-4 0  9993",
    "TLE_LINE2": "2 49425  53.2175  40.8733 0001731 102.3486 257.7700 15.08850678220752",
    "COMMENT": "Grouped by shell and plane from TLE"
  },
  {
    "OBJECT_NAME": "STARLINK-3114",
    "OBJECT_ID": "21104U",
    "EPOCH": "2025-11-11T05:53:08.377440",
    "MEAN_MOTION": 15.08847766,
    "ECCENTRICITY": 0.0001711,
    "INCLINATION": 53.2166,
    "RA_OF_ASC_NODE": 40.8368,
    "ARG_OF_PERICENTER": 89.9503,
    "MEAN_ANOMALY": 270.1686,
    "EPHEMERIS_TYPE": 0,
    "CLASSIFICATION_TYPE": "U",
    "NORAD_CAT_ID": 49426,
    "ELEMENT_SET_NO": 999,
    "REV_AT_EPOCH": 22074,
    "BSTAR": 7.3941e-05,
    "MEAN_MOTION_DOT": 8.89e-06,
    "MEAN_MOTION_DDOT": 0.0,
    "TLE_LINE1": "1 49426U 21104U   25315.24523585  .00000889  00000+0  73941-4 0  9995",
    "TLE_LINE2": "2 49426  53.2166  40.8368 0001711  89.9503 270.1686 15.08847766220740",
    "COMMENT": "Grouped by shell and plane from TLE"
  },
  {
    "OBJECT_NAME": "STARLINK-3131",
    "OBJECT_ID": "21104V",
    "EPOCH": "2025-11-11T05:38:37.466304",
    "MEAN_MOTION": 15.08830573,
    "ECCENTRICITY": 0.0001429,
    "INCLINATION": 53.2187,
    "RA_OF_ASC_NODE": 40.8886,
    "ARG_OF_PERICENTER": 94.7856,
    "MEAN_ANOMALY": 265.3299,
    "EPHEMERIS_TYPE": 0,
    "CLASSIFICATION_TYPE": "U",
    "NORAD_CAT_ID": 49427,
    "ELEMENT_SET_NO": 999,
    "REV_AT_EPOCH": 22075,
    "BSTAR": 0.00026955,
    "MEAN_MOTION_DOT": 4.003e-05,
    "MEAN_MOTION_DDOT": 0.0,
    "TLE_LINE1": "1 49427U 21104V   25315.23515586  .00004003  00000+0  26955-3 0  9991",
    "TLE_LINE2": "2 49427  53.2187  40.8886 0001429  94.7856 265.3299 15.08830573220755",
    "COMMENT": "Grouped by shell and plane from TLE"
  },
  {
    "OBJECT_NAME": "STARLINK-3121",
    "OBJECT_ID": "21104W",
    "EPOCH": "2025-11-11T06:46:07.271904",
    "MEAN_MOTION": 15.08844507,
    "ECCENTRICITY": 0.0001272,
    "INCLINATION": 53.2178,
    "RA_OF_ASC_NODE": 40.5848,
    "ARG_OF_PERICENTER": 85.0706,
    "MEAN_ANOMALY": 275.0431,
    "EPHEMERIS_TYPE": 0,
    "CLASSIFICATION_TYPE": "U",
    "NORAD_CAT_ID": 49428,
    "ELEMENT_SET_NO": 999,
    "REV_AT_EPOCH": 22076,
    "BSTAR": 0.00011018,
    "MEAN_MOTION_DOT": 1.466e-05,
    "MEAN_MOTION_DDOT": 0.0,
    "TLE_LINE1": "1 49428U 21104W   25315.28202861  .00001466  00000+0  11018-3 0  9990",
    "TLE_LINE2": "2 49428  53.2178  40.5848 0001272  85.0706 275.0431 15.08844507220763",
    "COMMENT": "Grouped by shell and plane from TLE"
  },
  {
    "OBJECT_NAME": "STARLINK-3138",
    "OBJECT_ID": "21104Y",
    "EPOCH": "2025-11-11T06:10:27.838560",
    "MEAN_MOTION": 15.08841225,
    "ECCENTRICITY": 0.0001543,
    "INCLINATION": 53.2187,
    "RA_OF_ASC_NODE": 41.0621,
    "ARG_OF_PERICENTER": 95.99,
    "MEAN_ANOMALY": 264.1268,
    "EPHEMERIS_TYPE": 0,
    "CLASSIFICATION_TYPE": "U",
    "NORAD_CAT_ID": 49430,
    "ELEMENT_SET_NO": 999,
    "REV_AT_EPOCH": 22075,
    "BSTAR": 3.7895e-05,
    "MEAN_MOTION_DOT": 3.15e-06,
    "MEAN_MOTION_DDOT": 0.0,
    "TLE_LINE1": "1 49430U 21104Y   25315.25726665  .00000315  00000+0  37895-4 0  9997",
    "TLE_LINE2": "2 49430  53.2187  41.0621 0001543  95.9900 264.1268 15.08841225220758",
    "COMMENT": "Grouped by shell and plane from TLE"
  },
  {
    "OBJECT_NAME": "STARLINK-3153",
    "OBJECT_ID": "21104Z",
    "EPOCH": "2025-11-11T06:35:34.252800",
    "MEAN_MOTION": 15.08834362,
    "ECCENTRICITY": 0.0001236,
    "INCLINATION": 53.2176,
    "RA_OF_ASC_NODE": 40.8878,
    "ARG_OF_PERICENTER": 88.521,
    "MEAN_ANOMALY": 271.5923,
    "EPHEMERIS_TYPE": 0,
    "CLASSIFICATION_TYPE": "U",
    "NORAD_CAT_ID": 49431,
    "ELEMENT_SET_NO": 999,
    "REV_AT_EPOCH": 22075,
    "BSTAR": 0.0,
    "MEAN_MOTION_DOT": -2.99e-06,
    "MEAN_MOTION_DDOT": 0.0,
    "TLE_LINE1": "1 49431U 21104Z   25315.27470200 -.00000299  00000+0 -73204-6 0  9990",
    "TLE_LINE2": "2 49431  53.2176  40.8878 0001236  88.5210 271.5923 15.08834362220753",
    "COMMENT": "Grouped by shell and plane from TLE"
  },
  {
    "OBJECT_NAME": "STARLINK-3134",
    "OBJECT_ID": "21104AC",
    "EPOCH": "2025-11-11T05:47:52.203552",
    "MEAN_MOTION": 15.08846105,
    "ECCENTRICITY": 0.000186,
    "INCLINATION": 53.2187,
    "RA_OF_ASC_NODE": 41.0073,
    "ARG_OF_PERICENTER": 89.8418,
    "MEAN_ANOMALY": 270.2788,
    "EPHEMERIS_TYPE": 0,
    "CLASSIFICATION_TYPE": "U",
    "NORAD_CAT_ID": 49434,
    "ELEMENT_SET_NO": 999,
    "REV_AT_EPOCH": 22183,
    "BSTAR": 3.083e-05,
    "MEAN_MOTION_DOT": 2.03e-06,
    "MEAN_MOTION_DDOT": 0.0,
    "TLE_LINE1": "1 49434U 21104AC  25315.24157643  .00000203  00000+0  30830-4 0  9992",
    "TLE_LINE2": "2 49434  53.2187  41.0073 0001860  89.8418 270.2788 15.08846105221838",
    "COMMENT": "Grouped by shell and plane from TLE"
  },
  {
    "OBJECT_NAME": "STARLINK-4590",
    "OBJECT_ID": "22104U",
    "EPOCH": "2025-11-11T06:05:45.068640",
    "MEAN_MOTION": 15.08841465,
    "ECCENTRICITY": 0.0001666,
    "INCLINATION": 53.216,
    "RA_OF_ASC_NODE": 45.9077,
    "ARG_OF_PERICENTER": 88.1219,
    "MEAN_ANOMALY": 271.9964,
    "EPHEMERIS_TYPE": 0,
    "CLASSIFICATION_TYPE": "U",
    "NORAD_CAT_ID": 53606,
    "ELEMENT_SET_NO": 999,
    "REV_AT_EPOCH": 17775,
    "BSTAR": 0.00016481000000000002,
    "MEAN_MOTION_DOT": 2.336e-05,
    "MEAN_MOTION_DDOT": 0.0,
    "TLE_LINE1": "1 53606U 22104U   25315.25399385  .00002336  00000+0  16481-3 0  9995",
    "TLE_LINE2": "2 53606  53.2160  45.9077 0001666  88.1219 271.9964 15.08841465177756",
    "COMMENT": "Grouped by shell and plane from TLE"
  },
  {
    "OBJECT_NAME": "STARLINK-4647",
    "OBJECT_ID": "22104W",
    "EPOCH": "2025-11-11T06:16:21.612000",
    "MEAN_MOTION": 15.08846443,
    "ECCENTRICITY": 0.000166,
    "INCLINATION": 53.2189,
    "RA_OF_ASC_NODE": 45.9557,
    "ARG_OF_PERICENTER": 92.7056,
    "MEAN_ANOMALY": 267.4126,
    "EPHEMERIS_TYPE": 0,
    "CLASSIFICATION_TYPE": "U",
    "NORAD_CAT_ID": 53608,
    "ELEMENT_SET_NO": 999,
    "REV_AT_EPOCH": 17775,
    "BSTAR": 3.4319e-05,
    "MEAN_MOTION_DOT": 2.58e-06,
    "MEAN_MOTION_DDOT": 0.0,
    "TLE_LINE1": "1 53608U 22104W   25315.26136125  .00000258  00000+0  34319-4 0  9991",
    "TLE_LINE2": "2 53608  53.2189  45.9557 0001660  92.7056 267.4126 15.08846443177757",
    "COMMENT": "Grouped by shell and plane from TLE"
  },
  {
    "OBJECT_NAME": "STARLINK-4610",
    "OBJECT_ID": "22104Y",
    "EPOCH": "2025-11-11T06:07:07.613472",
    "MEAN_MOTION": 15.08792232,
    "ECCENTRICITY": 0.0002198,
    "INCLINATION": 53.2191,
    "RA_OF_ASC_NODE": 45.9142,
    "ARG_OF_PERICENTER": 99.2532,
    "MEAN_ANOMALY": 260.8709,
    "EPHEMERIS_TYPE": 0,
    "CLASSIFICATION_TYPE": "U",
    "NORAD_CAT_ID": 53610,
    "ELEMENT_SET_NO": 999,
    "REV_AT_EPOCH": 17775,
    "BSTAR": 0.0006630399999999999,
    "MEAN_MOTION_DOT": 0.00010266,
    "MEAN_MOTION_DDOT": 0.0,
    "TLE_LINE1": "1 53610U 22104Y   25315.25494923  .00010266  00000+0  66304-3 0  9994",
    "TLE_LINE2": "2 53610  53.2191  45.9142 0002198  99.2532 260.8709 15.08792232177751",
    "COMMENT": "Grouped by shell and plane from TLE"
  },
  {
    "OBJECT_NAME": "STARLINK-4658",
    "OBJECT_ID": "22104AA",
    "EPOCH": "2025-11-11T06:00:26.383968",
    "MEAN_MOTION": 15.08841861,
    "ECCENTRICITY": 0.0001635,
    "INCLINATION": 53.2145,
    "RA_OF_ASC_NODE": 45.886,
    "ARG_OF_PERICENTER": 98.3019,
    "MEAN_ANOMALY": 261.8159,
    "EPHEMERIS_TYPE": 0,
    "CLASSIFICATION_TYPE": "U",
    "NORAD_CAT_ID": 53612,
    "ELEMENT_SET_NO": 999,
    "REV_AT_EPOCH": 17775,
    "BSTAR": 2.8871000000000002e-05,
    "MEAN_MOTION_DOT": 1.71e-06,
    "MEAN_MOTION_DDOT": 0.0,
    "TLE_LINE1": "1 53612U 22104AA  25315.25030537  .00000171  00000+0  28871-4 0  9995",
    "TLE_LINE2": "2 53612  53.2145  45.8860 0001635  98.3019 261.8159 15.08841861177756",
    "COMMENT": "Grouped by shell and plane from TLE"
  },
  {
    "OBJECT_NAME": "STARLINK-4655",
    "OBJECT_ID": "22104AB",
    "EPOCH": "2025-11-11T06:11:03.162336",
    "MEAN_MOTION": 15.08856367,
    "ECCENTRICITY": 0.0001206,
    "INCLINATION": 53.2205,
    "RA_OF_ASC_NODE": 45.9342,
    "ARG_OF_PERICENTER": 105.7958,
    "MEAN_ANOMALY": 254.3167,
    "EPHEMERIS_TYPE": 0,
    "CLASSIFICATION_TYPE": "U",
    "NORAD_CAT_ID": 53613,
    "ELEMENT_SET_NO": 999,
    "REV_AT_EPOCH": 17775,
    "BSTAR": 0.0,
    "MEAN_MOTION_DOT": -4.513e-05,
    "MEAN_MOTION_DDOT": 0.0,
    "TLE_LINE1": "1 53613U 22104AB  25315.25767549 -.00004513  00000+0 -26554-3 0  9997",
    "TLE_LINE2": "2 53613  53.2205  45.9342 0001206 105.7958 254.3167 15.08856367177752",
    "COMMENT": "Grouped by shell and plane from TLE"
  }
]